FENGYUN 4A
1 41882U 16077A   26119.29926372 -.00000358  00000+0  00000+0 0  9998
2 41882   2.2009  80.7730 0007995 140.9427 226.9373  1.00265649 34440
